start=new Date('2022-11-01T00:00:00.000Z').valueOf();
sats=[{"TIME_SYSTEM":"UTC","SITE":"AFETR","MEAN_ANOMALY":"174.2541","FILE":"3638583","SEMIMAJOR_AXIS":"6917.875","OBJECT_TYPE":"PAYLOAD","ARG_OF_PERICENTER":"64.7555","MEAN_MOTION":"15.08841738","CENTER_NAME":"EARTH","APOAPSIS":"540.754","LAUNCH_DATE":"2022-08-19","OBJECT_ID":"2022-101AF","INCLINATION":"53.2198","MEAN_MOTION_DOT":"-0.00002435","OBJECT_NAME":"STARLINK-4505","TLE_LINE2":"2 53556  53.2198 162.3263 0001465  64.7555 174.2541 15.08841738 11400","CLASSIFICATION_TYPE":"U","REV_AT_EPOCH":"1140","COUNTRY_CODE":"US","PERIOD":"95.437","EPHEMERIS_TYPE":"0","PERIAPSIS":"538.727","REF_FRAME":"TEME","BSTAR":"-0.00013493000000","ELEMENT_SET_NO":"999","TLE_LINE1":"1 53556U 22101AF  22304.91668981 -.00002435  00000-0 -13493-3 0  9998","RCS_SIZE":"LARGE","NORAD_CAT_ID":"53556","DECAY_DATE":null,"ECCENTRICITY":"0.00014650","MEAN_MOTION_DDOT":"0.0000000000000","GP_ID":"216572248","EPOCH":"2022-10-31T22:00:01.999584","RA_OF_ASC_NODE":"162.3263","MEAN_ELEMENT_THEORY":"SGP4"},{"LAUNCH_DATE":"2022-08-19","APOAPSIS":"540.671","MEAN_MOTION":"15.08832826","CENTER_NAME":"EARTH","ARG_OF_PERICENTER":"62.5776","OBJECT_TYPE":"PAYLOAD","FILE":"3638583","SEMIMAJOR_AXIS":"6917.902","SITE":"AFETR","TIME_SYSTEM":"UTC","MEAN_ANOMALY":"116.4271","PERIOD":"95.438","REV_AT_EPOCH":"1140","COUNTRY_CODE":"US","CLASSIFICATION_TYPE":"U","OBJECT_NAME":"STARLINK-4502","TLE_LINE2":"2 53557  53.2177 162.3250 0001306  62.5776 116.4271 15.08832826 11405","INCLINATION":"53.2177","MEAN_MOTION_DOT":"-0.00011653","OBJECT_ID":"2022-101AG","ECCENTRICITY":"0.00013060","RCS_SIZE":"LARGE","DECAY_DATE":null,"NORAD_CAT_ID":"53557","TLE_LINE1":"1 53557U 22101AG  22304.91668981 -.00011653  00000-0 -71538-3 0  9995","ELEMENT_SET_NO":"999","BSTAR":"-0.00071538000000","REF_FRAME":"TEME","PERIAPSIS":"538.864","EPHEMERIS_TYPE":"0","MEAN_ELEMENT_THEORY":"SGP4","RA_OF_ASC_NODE":"162.3250","EPOCH":"2022-10-31T22:00:01.999584","MEAN_MOTION_DDOT":"0.0000000000000","GP_ID":"216572246"},{"MEAN_ELEMENT_THEORY":"SGP4","EPOCH":"2022-10-31T22:00:01.999584","GP_ID":"216572748","MEAN_MOTION_DDOT":"0.0000000000000","RA_OF_ASC_NODE":"157.2995","NORAD_CAT_ID":"53558","DECAY_DATE":null,"RCS_SIZE":"LARGE","ECCENTRICITY":"0.00013870","BSTAR":"-0.05329800000000","REF_FRAME":"TEME","EPHEMERIS_TYPE":"0","PERIAPSIS":"504.506","TLE_LINE1":"1 53558U 22101AH  22304.91668981 -.01067503  00000-0 -53298-1 0  9993","ELEMENT_SET_NO":"999","COUNTRY_CODE":"US","REV_AT_EPOCH":"1147","CLASSIFICATION_TYPE":"U","PERIOD":"94.729","INCLINATION":"53.2170","MEAN_MOTION_DOT":"-0.01067503","OBJECT_ID":"2022-101AH","TLE_LINE2":"2 53558  53.2170 157.2995 0001387 102.3451 358.3798 15.20126534 11474","OBJECT_NAME":"STARLINK-4494","APOAPSIS":"506.415","CENTER_NAME":"EARTH","MEAN_MOTION":"15.20126534","LAUNCH_DATE":"2022-08-19","FILE":"3638583","SEMIMAJOR_AXIS":"6883.596","SITE":"AFETR","TIME_SYSTEM":"UTC","MEAN_ANOMALY":"358.3798","ARG_OF_PERICENTER":"102.3451","OBJECT_TYPE":"PAYLOAD"},{"MEAN_ELEMENT_THEORY":"SGP4","MEAN_MOTION_DDOT":"0.0000000000000","GP_ID":"216574366","EPOCH":"2022-10-31T22:00:01.999584","RA_OF_ASC_NODE":"162.3261","NORAD_CAT_ID":"53559","DECAY_DATE":null,"RCS_SIZE":"LARGE","ECCENTRICITY":"0.00014800","EPHEMERIS_TYPE":"0","PERIAPSIS":"538.770","BSTAR":"-0.00048906000000","REF_FRAME":"TEME","ELEMENT_SET_NO":"999","TLE_LINE1":"1 53559U 22101AJ  22304.91668981 -.00008059  00000-0 -48906-3 0  9996","CLASSIFICATION_TYPE":"U","COUNTRY_CODE":"US","REV_AT_EPOCH":"1140","PERIOD":"95.439","OBJECT_ID":"2022-101AJ","INCLINATION":"53.2192","MEAN_MOTION_DOT":"-0.00008059","TLE_LINE2":"2 53559  53.2192 162.3261 0001480  73.5500 145.4883 15.08824192 11404","OBJECT_NAME":"STARLINK-4508","CENTER_NAME":"EARTH","MEAN_MOTION":"15.08824192","APOAPSIS":"540.818","LAUNCH_DATE":"2022-08-19","SITE":"AFETR","TIME_SYSTEM":"UTC","MEAN_ANOMALY":"145.4883","SEMIMAJOR_AXIS":"6917.929","FILE":"3638651","ARG_OF_PERICENTER":"73.5500","OBJECT_TYPE":"PAYLOAD"},{"RA_OF_ASC_NODE":"154.2094","GP_ID":"216572774","MEAN_MOTION_DDOT":"0.0000000000000","EPOCH":"2022-10-31T22:00:01.999584","MEAN_ELEMENT_THEORY":"SGP4","ELEMENT_SET_NO":"999","TLE_LINE1":"1 53560U 22101AK  22304.91668981 -.01146702  00000-0 -27895-1 0  9999","PERIAPSIS":"435.911","EPHEMERIS_TYPE":"0","REF_FRAME":"TEME","BSTAR":"-0.02789500000000","ECCENTRICITY":"0.00013220","DECAY_DATE":null,"NORAD_CAT_ID":"53560","RCS_SIZE":"LARGE","TLE_LINE2":"2 53560  53.2167 154.2094 0001322  90.7430 114.2761 15.43153299 11513","OBJECT_NAME":"STARLINK-4564","OBJECT_ID":"2022-101AK","MEAN_MOTION_DOT":"-0.01146702","INCLINATION":"53.2167","PERIOD":"93.315","CLASSIFICATION_TYPE":"U","COUNTRY_CODE":"US","REV_AT_EPOCH":"1151","OBJECT_TYPE":"PAYLOAD","ARG_OF_PERICENTER":"90.7430","SITE":"AFETR","MEAN_ANOMALY":"114.2761","TIME_SYSTEM":"UTC","SEMIMAJOR_AXIS":"6814.947","FILE":"3638585","LAUNCH_DATE":"2022-08-19","CENTER_NAME":"EARTH","MEAN_MOTION":"15.43153299","APOAPSIS":"437.713"},{"REF_FRAME":"TEME","BSTAR":"0.00073209000000","EPHEMERIS_TYPE":"0","PERIAPSIS":"538.727","TLE_LINE1":"1 53561U 22101AL  22304.91668981  .00011381  00000-0  73209-3 0  9993","ELEMENT_SET_NO":"999","RCS_SIZE":"LARGE","DECAY_DATE":null,"NORAD_CAT_ID":"53561","ECCENTRICITY":"0.00014890","EPOCH":"2022-10-31T22:00:01.999584","GP_ID":"216618923","MEAN_MOTION_DDOT":"0.0000000000000","RA_OF_ASC_NODE":"162.3266","MEAN_ELEMENT_THEORY":"SGP4","SEMIMAJOR_AXIS":"6917.892","FILE":"3639522","TIME_SYSTEM":"UTC","SITE":"AFETR","MEAN_ANOMALY":"188.3270","ARG_OF_PERICENTER":"70.6427","OBJECT_TYPE":"PAYLOAD","APOAPSIS":"540.787","MEAN_MOTION":"15.08836152","CENTER_NAME":"EARTH","LAUNCH_DATE":"2022-08-19","MEAN_MOTION_DOT":"0.00011381","INCLINATION":"53.2211","OBJECT_ID":"2022-101AL","OBJECT_NAME":"STARLINK-4563","TLE_LINE2":"2 53561  53.2211 162.3266 0001489  70.6427 188.3270 15.08836152  1302","REV_AT_EPOCH":"130","COUNTRY_CODE":"US","CLASSIFICATION_TYPE":"U","PERIOD":"95.438"},{"SEMIMAJOR_AXIS":"6813.408","FILE":"3639522","SITE":"AFETR","MEAN_ANOMALY":"122.2779","TIME_SYSTEM":"UTC","OBJECT_TYPE":"PAYLOAD","ARG_OF_PERICENTER":"91.3058","APOAPSIS":"436.202","CENTER_NAME":"EARTH","MEAN_MOTION":"15.43676019","LAUNCH_DATE":"2022-08-19","MEAN_MOTION_DOT":"-0.01157747","INCLINATION":"53.2169","OBJECT_ID":"2022-101AM","TLE_LINE2":"2 53562  53.2169 154.1923 0001363  91.3058 122.2779 15.43676019  1309","OBJECT_NAME":"STARLINK-4565","COUNTRY_CODE":"US","REV_AT_EPOCH":"130","CLASSIFICATION_TYPE":"U","PERIOD":"93.284","BSTAR":"-0.02769200000000","REF_FRAME":"TEME","PERIAPSIS":"434.344","EPHEMERIS_TYPE":"0","TLE_LINE1":"1 53562U 22101AM  22304.91668981 -.01157747  00000-0 -27692-1 0  9997","ELEMENT_SET_NO":"999","DECAY_DATE":null,"NORAD_CAT_ID":"53562","RCS_SIZE":"LARGE","ECCENTRICITY":"0.00013630","EPOCH":"2022-10-31T22:00:01.999584","GP_ID":"216619938","MEAN_MOTION_DDOT":"0.0000000000000","RA_OF_ASC_NODE":"154.1923","MEAN_ELEMENT_THEORY":"SGP4"},{"RA_OF_ASC_NODE":"154.2187","EPOCH":"2022-10-31T22:00:01.999584","MEAN_MOTION_DDOT":"0.0000000000000","GP_ID":"216619769","MEAN_ELEMENT_THEORY":"SGP4","TLE_LINE1":"1 53563U 22101AN  22304.91668981 -.01148381  00000-0 -28224-1 0  9994","ELEMENT_SET_NO":"999","REF_FRAME":"TEME","BSTAR":"-0.02822400000000","EPHEMERIS_TYPE":"0","PERIAPSIS":"436.787","ECCENTRICITY":"0.00013270","RCS_SIZE":"LARGE","NORAD_CAT_ID":"53563","DECAY_DATE":null,"OBJECT_NAME":"STARLINK-4561","TLE_LINE2":"2 53563  53.2167 154.2187 0001327  92.8425 107.2813 15.42854591  1309","INCLINATION":"53.2167","MEAN_MOTION_DOT":"-0.01148381","OBJECT_ID":"2022-101AN","PERIOD":"93.333","REV_AT_EPOCH":"130","COUNTRY_CODE":"US","CLASSIFICATION_TYPE":"U","ARG_OF_PERICENTER":"92.8425","OBJECT_TYPE":"PAYLOAD","SEMIMAJOR_AXIS":"6815.826","FILE":"3639522","SITE":"AFETR","MEAN_ANOMALY":"107.2813","TIME_SYSTEM":"UTC","LAUNCH_DATE":"2022-08-19","APOAPSIS":"438.596","MEAN_MOTION":"15.42854591","CENTER_NAME":"EARTH"},{"REV_AT_EPOCH":"1151","COUNTRY_CODE":"US","CLASSIFICATION_TYPE":"U","PERIOD":"93.262","MEAN_MOTION_DOT":"-0.01156997","INCLINATION":"53.2169","OBJECT_ID":"2022-101AP","OBJECT_NAME":"STARLINK-4577","TLE_LINE2":"2 53564  53.2169 154.1786 0001355  91.6640 128.7513 15.44031455 11510","APOAPSIS":"435.151","MEAN_MOTION":"15.44031455","CENTER_NAME":"EARTH","LAUNCH_DATE":"2022-08-19","FILE":"3638587","SEMIMAJOR_AXIS":"6812.362","MEAN_ANOMALY":"128.7513","SITE":"AFETR","TIME_SYSTEM":"UTC","OBJECT_TYPE":"PAYLOAD","ARG_OF_PERICENTER":"91.6640","MEAN_ELEMENT_THEORY":"SGP4","EPOCH":"2022-10-31T22:00:01.999584","GP_ID":"216572304","MEAN_MOTION_DDOT":"0.0000000000000","RA_OF_ASC_NODE":"154.1786","RCS_SIZE":"LARGE","NORAD_CAT_ID":"53564","DECAY_DATE":null,"ECCENTRICITY":"0.00013550","REF_FRAME":"TEME","BSTAR":"-0.02733900000000","PERIAPSIS":"433.304","EPHEMERIS_TYPE":"0","TLE_LINE1":"1 53564U 22101AP  22304.91668981 -.01156997  00000-0 -27339-1 0  9993","ELEMENT_SET_NO":"999"},{"PERIOD":"93.297","COUNTRY_CODE":"US","REV_AT_EPOCH":"1151","CLASSIFICATION_TYPE":"U","TLE_LINE2":"2 53565  53.2167 154.1994 0001314  92.7500 117.0461 15.43456929 11511","OBJECT_NAME":"STARLINK-4575","MEAN_MOTION_DOT":"-0.01152182","INCLINATION":"53.2167","OBJECT_ID":"2022-101AQ","LAUNCH_DATE":"2022-08-19","APOAPSIS":"436.813","CENTER_NAME":"EARTH","MEAN_MOTION":"15.43456929","ARG_OF_PERICENTER":"92.7500","OBJECT_TYPE":"PAYLOAD","SEMIMAJOR_AXIS":"6814.053","FILE":"3638587","SITE":"AFETR","TIME_SYSTEM":"UTC","MEAN_ANOMALY":"117.0461","MEAN_ELEMENT_THEORY":"SGP4","RA_OF_ASC_NODE":"154.1994","EPOCH":"2022-10-31T22:00:01.999584","MEAN_MOTION_DDOT":"0.0000000000000","GP_ID":"216572308","ECCENTRICITY":"0.00013140","DECAY_DATE":null,"NORAD_CAT_ID":"53565","RCS_SIZE":"LARGE","TLE_LINE1":"1 53565U 22101AQ  22304.91668981 -.01152182  00000-0 -27753-1 0  9996","ELEMENT_SET_NO":"999","REF_FRAME":"TEME","BSTAR":"-0.02775300000000","PERIAPSIS":"435.022","EPHEMERIS_TYPE":"0"}];
